HIMAWARI-8              
1 40267U 14060A   24215.61196531 -.00000287  00000+0  00000+0 0  9992
2 40267   0.0299 183.2367 0000950  16.3755 113.0247  1.00270861 35902
